NORAD_CAT_ID,OBJECT_NAME,OBJECT_TYPE,EPOCH,MEAN_MOTION,ECCENTRICITY,INCLINATION,RA_OF_ASC_NODE,ARG_OF_PERICENTER,MEAN_ANOMALY,BSTAR,MEAN_MOTION_DOT,MEAN_MOTION_DDOT,TLE_LINE0,TLE_LINE1,TLE_LINE2,SEMIMAJOR_AXIS,PERIOD,APOGEE,PERIGEE,DECAYED
53825.0,STARLINK-4751,PAYLOAD,2024-03-21 13:02:01,15.08834324,0.0001103,53.2169,288.1485,95.8452,264.2666,-3.3253e-05,-8.17e-06,0.0,0 STARLINK-4751,1 53825U 22114H   24081.54307326 -.00000817  00000-0 -33253-4 0  9996,2 53825  53.2169 288.1485 0001103  95.8452 264.2666 15.08834324 84412,6917.898,95.438,540.526,539.0,0.0
53825.0,STARLINK-4751,PAYLOAD,2024-03-21 20:58:56,15.08843681,0.0001168,53.2171,286.6623,93.2461,266.8665,5.146e-05,5.31e-06,0.0,0 STARLINK-4751,1 53825U 22114H   24081.87426575  .00000531  00000-0  51460-4 0  9991,2 53825  53.2171 286.6623 0001168  93.2461 266.8665 15.08843681 83923,6917.869,95.437,540.542,538.926,0.0
53825.0,STARLINK-4751,PAYLOAD,2024-03-21 22:34:19,15.08847117,0.0001306,53.2177,286.365,105.1932,254.9204,8.659e-05,1.091e-05,0.0,0 STARLINK-4751,1 53825U 22114H   24081.94050227  .00001091  00000-0  86590-4 0  9990,2 53825  53.2177 286.3650 0001306 105.1932 254.9204 15.08847117 84472,6917.859,95.437,540.627,538.82,0.0
53825.0,STARLINK-4751,PAYLOAD,2024-03-22 12:52:47,15.08839129,0.0001278,53.2184,283.6883,94.6964,265.4174,0.00015059,2.11e-05,0.0,0 STARLINK-4751,1 53825U 22114H   24082.53666589  .00002110  00000-0  15059-3 0  9994,2 53825  53.2184 283.6883 0001278  94.6964 265.4174 15.08839129 84560,6917.883,95.438,540.632,538.864,0.0
53825.0,STARLINK-4751,PAYLOAD,2024-03-22 20:49:43,15.08835274,0.0001156,53.2169,282.1987,111.3591,248.7525,0.0001077,1.426e-05,0.0,0 STARLINK-4751,1 53825U 22114H   24082.86786934  .00001426  00000-0  10770-3 0  9991,2 53825  53.2169 282.1987 0001156 111.3591 248.7525 15.08835274 84077,6917.895,95.438,540.56,538.96,0.0
53825.0,STARLINK-4751,PAYLOAD,2024-03-23 12:43:35,15.08820087,0.0001425,53.2181,279.2261,105.2701,254.8448,0.00032728,4.922e-05,0.0,0 STARLINK-4751,1 53825U 22114H   24083.53027649  .00004922  00000-0  32728-3 0  9998,2 53825  53.2181 279.2261 0001425 105.2701 254.8448 15.08820087 84176,6917.941,95.439,540.792,538.82,0.0
53825.0,STARLINK-4751,PAYLOAD,2024-03-23 20:40:30,15.08845366,0.0001291,53.2174,277.7397,82.0666,278.0473,3.4275e-05,2.58e-06,0.0,0 STARLINK-4751,1 53825U 22114H   24083.86146871  .00000258  00000-0  34275-4 0  9991,2 53825  53.2174 277.7397 0001291  82.0666 278.0473 15.08845366 84223,6917.864,95.437,540.622,538.836,0.0
53825.0,STARLINK-4751,PAYLOAD,2024-03-24 12:34:22,15.08840745,0.0001956,53.2171,274.7665,81.5051,278.6162,8.4674e-05,1.06e-05,0.0,0 STARLINK-4751,1 53825U 22114H   24084.52387080  .00001060  00000-0  84674-4 0  9994,2 53825  53.2171 274.7665 0001956  81.5051 278.6162 15.08840745 84862,6917.878,95.438,541.096,538.39,0.0
53825.0,STARLINK-4751,PAYLOAD,2024-03-24 18:55:54,15.0883926,0.0001376,53.2164,273.5763,88.1194,271.9956,6.6875e-05,7.77e-06,0.0,0 STARLINK-4751,1 53825U 22114H   24084.78883091  .00000777  00000-0  66875-4 0  9992,2 53825  53.2164 273.5763 0001376  88.1194 271.9956 15.08839260 84369,6917.883,95.438,540.7,538.796,0.0
53825.0,STARLINK-4751,PAYLOAD,2024-03-25 18:46:42,15.08826875,0.0001534,53.2169,269.1162,93.7185,266.3983,-0.00015076,-2.686e-05,0.0,0 STARLINK-4751,1 53825U 22114H   24085.78244041 -.00002686  00000-0 -15076-3 0  9998,2 53825  53.2169 269.1162 0001534  93.7185 266.3983 15.08826875 84519,6917.921,95.438,540.847,538.724,0.0
53825.0,STARLINK-4751,PAYLOAD,2024-03-26 12:15:57,15.08828533,0.0001461,53.2174,265.8459,94.9344,265.1815,0.00016746,2.377e-05,0.0,0 STARLINK-4751,1 53825U 22114H   24086.51108415  .00002377  00000-0  16746-3 0  9994,2 53825  53.2174 265.8459 0001461  94.9344 265.1815 15.08828533 85162,6917.915,95.438,540.791,538.77,0.0
53825.0,STARLINK-4751,PAYLOAD,2024-03-26 18:37:30,15.08835971,0.0001305,53.2159,264.6559,87.6243,272.4898,0.00024953,3.685e-05,0.0,0 STARLINK-4751,1 53825U 22114H   24086.77604383  .00003685  00000-0  24953-3 0  9999,2 53825  53.2159 264.6559 0001305  87.6243 272.4898 15.08835971 84667,6917.893,95.438,540.66,538.855,0.0
53825.0,STARLINK-4751,PAYLOAD,2024-03-27 12:06:44,15.08833614,0.0001437,53.2158,261.3849,91.4518,268.6638,0.00037828,5.736e-05,0.0,0 STARLINK-4751,1 53825U 22114H   24087.50468624  .00005736  00000-0  37828-3 0  9991,2 53825  53.2158 261.3849 0001437  91.4518 268.6638 15.08833614 85310,6917.9,95.438,540.759,538.771,0.0
53825.0,STARLINK-4751,PAYLOAD,2024-03-27 18:28:17,15.08835293,0.0001429,53.216,260.1949,92.4092,267.7064,0.00028358,4.228e-05,0.0,0 STARLINK-4751,1 53825U 22114H   24087.76964711  .00004228  00000-0  28358-3 0  9990,2 53825  53.2160 260.1949 0001429  92.4092 267.7064 15.08835293 85352,6917.895,95.438,540.748,538.771,0.0
53825.0,STARLINK-4751,PAYLOAD,2024-03-28 04:00:35,15.08850011,0.0001427,53.2166,258.4106,92.0614,268.0541,0.00031727,4.766e-05,0.0,0 STARLINK-4751,1 53825U 22114H   24088.16707814  .00004766  00000-0  31727-3 0  9995,2 53825  53.2166 258.4106 0001427  92.0614 268.0541 15.08850011 84872,6917.85,95.437,540.702,538.728,0.0
53825.0,STARLINK-4751,PAYLOAD,2024-03-28 19:54:27,15.08841824,0.000162,53.2174,255.439,95.0241,265.0936,4.7541e-05,4.69e-06,0.0,0 STARLINK-4751,1 53825U 22114H   24088.82948119  .00000469  00000-0  47541-4 0  9991,2 53825  53.2174 255.4390 0001620  95.0241 265.0936 15.08841824 84975,6917.875,95.437,540.861,538.619,0.0
53825.0,STARLINK-4751,PAYLOAD,2024-03-29 10:12:55,15.0884219,0.0001628,53.2152,252.7602,82.4931,277.6246,8.1192e-05,1.004e-05,0.0,0 STARLINK-4751,1 53825U 22114H   24089.42564071  .00001004  00000-0  81192-4 0  9995,2 53825  53.2152 252.7602 0001628  82.4931 277.6246 15.08842190 85602,6917.874,95.437,540.865,538.612,0.0
53825.0,STARLINK-4751,PAYLOAD,2024-03-30 19:36:01,15.08843437,0.0001499,53.217,246.5162,88.4152,271.7012,9.4371e-05,1.214e-05,0.0,0 STARLINK-4751,1 53825U 22114H   24090.81668108  .00001214  00000-0  94371-4 0  9992,2 53825  53.2170 246.5162 0001499  88.4152 271.7012 15.08843437 85275,6917.87,95.437,540.772,538.698,0.0
53825.0,STARLINK-4751,PAYLOAD,2024-03-31 14:40:38,15.08850505,0.0001831,53.2187,242.948,89.7945,270.3257,0.00017418,2.486e-05,0.0,0 STARLINK-4751,1 53825U 22114H   24091.61155537  .00002486  00000-0  17418-3 0  9996,2 53825  53.2187 242.9480 0001831  89.7945 270.3257 15.08850505 85933,6917.848,95.437,540.98,538.447,0.0
53825.0,STARLINK-4751,PAYLOAD,2024-03-31 17:51:22,15.08874536,0.000124,53.2176,242.3539,80.0233,280.0899,0.00038042,5.777e-05,0.0,0 STARLINK-4751,1 53825U 22114H   24091.74401301  .00005777  00000-0  38042-3 0  9995,2 53825  53.2176 242.3539 0001240  80.0233 280.0899 15.08874536 85411,6917.775,95.435,540.498,538.782,0.0
53825.0,STARLINK-4751,PAYLOAD,2024-04-01 03:23:41,15.08875046,0.0001344,53.2176,240.5691,82.977,277.1375,0.0003028,4.539e-05,0.0,0 STARLINK-4751,1 53825U 22114H   24092.14144938  .00004539  00000-0  30280-3 0  9991,2 53825  53.2176 240.5691 0001344  82.9770 277.1375 15.08875046 85471,6917.773,95.435,540.568,538.709,0.0
53825.0,STARLINK-4751,PAYLOAD,2024-04-01 09:45:16,15.08831047,0.0001731,53.218,239.3808,88.7561,271.3629,-8.2726e-05,-1.604e-05,0.0,0 STARLINK-4751,1 53825U 22114H   24092.40644637 -.00001604  00000-0 -82726-4 0  9996,2 53825  53.2180 239.3808 0001731  88.7561 271.3629 15.08831047 85510,6917.908,95.438,540.97,538.575,0.0
53825.0,STARLINK-4751,PAYLOAD,2024-04-01 14:31:26,15.08825548,0.0001951,53.2166,238.4899,86.9699,273.1517,-0.00011078,-2.05e-05,0.0,0 STARLINK-4751,1 53825U 22114H   24092.60517205 -.00002050  00000-0 -11078-3 0  9995,2 53825  53.2166 238.4899 0001951  86.9699 273.1517 15.08825548 86088,6917.925,95.438,541.139,538.44,0.0
53825.0,STARLINK-4751,PAYLOAD,2024-04-02 03:14:32,15.08822885,0.0001387,53.2162,236.11,93.8846,266.2305,-0.00014138,-2.536e-05,0.0,0 STARLINK-4751,1 53825U 22114H   24093.13509599 -.00002536  00000-0 -14138-3 0  9990,2 53825  53.2162 236.1100 0001387  93.8846 266.2305 15.08822885 85626,6917.933,95.439,540.757,538.838,0.0
53825.0,STARLINK-4751,PAYLOAD,2024-04-02 12:46:54,15.08778954,0.0001639,53.218,234.3262,89.8317,270.2863,-0.00036272,-6.046e-05,0.0,0 STARLINK-4751,1 53825U 22114H   24093.53258022 -.00006046  00000-0 -36272-3 0  9999,2 53825  53.2180 234.3262 0001639  89.8317 270.2863 15.08778954 86221,6918.067,95.441,541.066,538.798,0.0
53825.0,STARLINK-4751,PAYLOAD,2024-04-02 19:08:23,15.08843182,0.0001549,53.2173,233.1349,94.9478,265.1691,8.8293e-06,-1.47e-06,0.0,0 STARLINK-4751,1 53825U 22114H   24093.79749330 -.00000147  00000-0  88293-5 0  9991,2 53825  53.2173 233.1349 0001549  94.9478 265.1691 15.08843182 85723,6917.871,95.437,540.807,538.664,0.0
53825.0,STARLINK-4751,PAYLOAD,2024-04-03 12:37:37,15.08838789,0.000131,53.2163,229.8648,90.6348,269.4794,0.00038393,5.827e-05,0.0,0 STARLINK-4751,1 53825U 22114H   24094.52612512  .00005827  00000-0  38393-3 0  9997,2 53825  53.2163 229.8648 0001310  90.6348 269.4794 15.08838789 86371,6917.884,95.438,540.655,538.843,0.0
53825.0,STARLINK-4751,PAYLOAD,2024-04-03 15:48:23,15.08845346,0.0001329,53.2164,229.2699,92.9479,267.1666,0.0004318,6.592e-05,0.0,0 STARLINK-4751,1 53825U 22114H   24094.65860118  .00006592  00000-0  43180-3 0  9998,2 53825  53.2164 229.2699 0001329  92.9479 267.1666 15.08845346 85854,6917.864,95.437,540.648,538.81,0.0
53825.0,STARLINK-4751,PAYLOAD,2024-04-04 12:28:26,15.08803322,0.0001503,53.2179,225.4043,98.8109,261.3054,0.00037179,5.628e-05,0.0,0 STARLINK-4751,1 53825U 22114H   24095.51975128  .00005628  00000-0  37179-3 0  9992,2 53825  53.2179 225.4043 0001503  98.8109 261.3054 15.08803322 85989,6917.993,95.44,540.897,538.818,0.0
53825.0,STARLINK-4751,PAYLOAD,2024-04-04 15:39:12,15.08808217,0.0001512,53.2174,224.8097,98.6409,261.4754,0.00038887,5.901e-05,0.0,0 STARLINK-4751,1 53825U 22114H   24095.65223036  .00005901  00000-0  38887-3 0  9992,2 53825  53.2174 224.8097 0001512  98.6409 261.4754 15.08808217 86546,6917.978,95.44,540.889,538.797,0.0
